CCSDS_OMM_VERS = 2.0
CREATION_DATE  = 
ORIGINATOR     = 

OBJECT_NAME    = ATLAS CENTAUR 2
OBJECT_ID      = 1963-047A
CENTER_NAME    = EARTH
REF_FRAME      = TEME
TIME_SYSTEM    = UTC
MEAN_ELEMENT_THEORY = SGP/SGP4

EPOCH          = 2026-03-26T10:35:21.738048
MEAN_MOTION    = 14.12131187
ECCENTRICITY   = .0547422
INCLINATION    = 30.3562
RA_OF_ASC_NODE = 102.0187
ARG_OF_PERICENTER = 227.9304
MEAN_ANOMALY   = 127.3468

EPHEMERIS_TYPE = 0
CLASSIFICATION_TYPE = U
NORAD_CAT_ID   = 694
ELEMENT_SET_NO = 999
REV_AT_EPOCH   = 13399
BSTAR          = .23329E-3
MEAN_MOTION_DOT = .2027E-4
MEAN_MOTION_DDOT = 0

CCSDS_OMM_VERS = 2.0
CREATION_DATE  = 
ORIGINATOR     = 

OBJECT_NAME    = THOR AGENA D R/B
OBJECT_ID      = 1964-002A
CENTER_NAME    = EARTH
REF_FRAME      = TEME
TIME_SYSTEM    = UTC
MEAN_ELEMENT_THEORY = SGP/SGP4

EPOCH          = 2026-03-26T21:29:49.257600
MEAN_MOTION    = 14.34028914
ECCENTRICITY   = .0032473
INCLINATION    = 99.1216
RA_OF_ASC_NODE = 100.1708
ARG_OF_PERICENTER = 206.8297
MEAN_ANOMALY   = 153.1208

EPHEMERIS_TYPE = 0
CLASSIFICATION_TYPE = U
NORAD_CAT_ID   = 733
ELEMENT_SET_NO = 999
REV_AT_EPOCH   = 24076
BSTAR          = .83893E-4
MEAN_MOTION_DOT = .187E-5
MEAN_MOTION_DDOT = 0

CCSDS_OMM_VERS = 2.0
CREATION_DATE  = 
ORIGINATOR     = 

OBJECT_NAME    = SL-3 R/B
OBJECT_ID      = 1964-053B
CENTER_NAME    = EARTH
REF_FRAME      = TEME
TIME_SYSTEM    = UTC
MEAN_ELEMENT_THEORY = SGP/SGP4

EPOCH          = 2026-03-26T20:51:04.350240
MEAN_MOTION    = 14.61379577
ECCENTRICITY   = .0080344
INCLINATION    = 65.0756
RA_OF_ASC_NODE = 280.8702
ARG_OF_PERICENTER = 286.8142
MEAN_ANOMALY   = 72.4156

EPHEMERIS_TYPE = 0
CLASSIFICATION_TYPE = U
NORAD_CAT_ID   = 877
ELEMENT_SET_NO = 999
REV_AT_EPOCH   = 26930
BSTAR          = .60766E-4
MEAN_MOTION_DOT = .189E-5
MEAN_MOTION_DDOT = 0

CCSDS_OMM_VERS = 2.0
CREATION_DATE  = 
ORIGINATOR     = 

OBJECT_NAME    = SL-8 R/B
OBJECT_ID      = 1967-045B
CENTER_NAME    = EARTH
REF_FRAME      = TEME
TIME_SYSTEM    = UTC
MEAN_ELEMENT_THEORY = SGP/SGP4

EPOCH          = 2026-03-26T14:22:03.055008
MEAN_MOTION    = 14.45635791
ECCENTRICITY   = .0064801
INCLINATION    = 74.0115
RA_OF_ASC_NODE = 316.5125
ARG_OF_PERICENTER = 319.0193
MEAN_ANOMALY   = 40.6103

EPHEMERIS_TYPE = 0
CLASSIFICATION_TYPE = U
NORAD_CAT_ID   = 2802
ELEMENT_SET_NO = 999
REV_AT_EPOCH   = 9146
BSTAR          = .83134E-4
MEAN_MOTION_DOT = .273E-5
MEAN_MOTION_DDOT = 0

CCSDS_OMM_VERS = 2.0
CREATION_DATE  = 
ORIGINATOR     = 

OBJECT_NAME    = SL-8 R/B
OBJECT_ID      = 1968-040B
CENTER_NAME    = EARTH
REF_FRAME      = TEME
TIME_SYSTEM    = UTC
MEAN_ELEMENT_THEORY = SGP/SGP4

EPOCH          = 2026-03-26T21:05:56.455296
MEAN_MOTION    = 15.03368090
ECCENTRICITY   = .0023283
INCLINATION    = 74.0295
RA_OF_ASC_NODE = 278.5652
ARG_OF_PERICENTER = 95.5721
MEAN_ANOMALY   = 264.8123

EPHEMERIS_TYPE = 0
CLASSIFICATION_TYPE = U
NORAD_CAT_ID   = 3230
ELEMENT_SET_NO = 999
REV_AT_EPOCH   = 9259
BSTAR          = .29198E-3
MEAN_MOTION_DOT = .395E-4
MEAN_MOTION_DDOT = 0

CCSDS_OMM_VERS = 2.0
CREATION_DATE  = 
ORIGINATOR     = 

OBJECT_NAME    = OAO 2
OBJECT_ID      = 1968-110A
CENTER_NAME    = EARTH
REF_FRAME      = TEME
TIME_SYSTEM    = UTC
MEAN_ELEMENT_THEORY = SGP/SGP4

EPOCH          = 2026-03-26T14:47:00.946752
MEAN_MOTION    = 14.47316969
ECCENTRICITY   = .0005913
INCLINATION    = 34.9925
RA_OF_ASC_NODE = 170.7168
ARG_OF_PERICENTER = 328.5487
MEAN_ANOMALY   = 31.4849

EPHEMERIS_TYPE = 0
CLASSIFICATION_TYPE = U
NORAD_CAT_ID   = 3597
ELEMENT_SET_NO = 999
REV_AT_EPOCH   = 2155
BSTAR          = .63457E-4
MEAN_MOTION_DOT = .217E-5
MEAN_MOTION_DDOT = 0

CCSDS_OMM_VERS = 2.0
CREATION_DATE  = 
ORIGINATOR     = 

OBJECT_NAME    = ISIS 1
OBJECT_ID      = 1969-009A
CENTER_NAME    = EARTH
REF_FRAME      = TEME
TIME_SYSTEM    = UTC
MEAN_ELEMENT_THEORY = SGP/SGP4

EPOCH          = 2026-03-26T10:43:06.075840
MEAN_MOTION    = 11.30418436
ECCENTRICITY   = .1707867
INCLINATION    = 88.4513
RA_OF_ASC_NODE = 153.4802
ARG_OF_PERICENTER = 55.3601
MEAN_ANOMALY   = 319.6804

EPHEMERIS_TYPE = 0
CLASSIFICATION_TYPE = U
NORAD_CAT_ID   = 3669
ELEMENT_SET_NO = 999
REV_AT_EPOCH   = 35042
BSTAR          = .63729E-4
MEAN_MOTION_DOT = .11E-5
MEAN_MOTION_DDOT = 0

CCSDS_OMM_VERS = 2.0
CREATION_DATE  = 
ORIGINATOR     = 

OBJECT_NAME    = SERT 2
OBJECT_ID      = 1970-009A
CENTER_NAME    = EARTH
REF_FRAME      = TEME
TIME_SYSTEM    = UTC
MEAN_ELEMENT_THEORY = SGP/SGP4

EPOCH          = 2026-03-26T10:09:58.111200
MEAN_MOTION    = 13.58731364
ECCENTRICITY   = .0005578
INCLINATION    = 99.2779
RA_OF_ASC_NODE = 27.6033
ARG_OF_PERICENTER = 116.8322
MEAN_ANOMALY   = 351.1227

EPHEMERIS_TYPE = 0
CLASSIFICATION_TYPE = U
NORAD_CAT_ID   = 4327
ELEMENT_SET_NO = 999
REV_AT_EPOCH   = 78216
BSTAR          = .70824E-4
MEAN_MOTION_DOT = .1E-6
MEAN_MOTION_DDOT = 0

CCSDS_OMM_VERS = 2.0
CREATION_DATE  = 
ORIGINATOR     = 

OBJECT_NAME    = SL-3 R/B
OBJECT_ID      = 1971-028B
CENTER_NAME    = EARTH
REF_FRAME      = TEME
TIME_SYSTEM    = UTC
MEAN_ELEMENT_THEORY = SGP/SGP4

EPOCH          = 2026-03-26T21:21:48.345696
MEAN_MOTION    = 15.62633322
ECCENTRICITY   = .0014207
INCLINATION    = 81.2367
RA_OF_ASC_NODE = 30.7626
ARG_OF_PERICENTER = 213.4447
MEAN_ANOMALY   = 146.5911

EPHEMERIS_TYPE = 0
CLASSIFICATION_TYPE = U
NORAD_CAT_ID   = 5118
ELEMENT_SET_NO = 999
REV_AT_EPOCH   = 99135
BSTAR          = .51065E-3
MEAN_MOTION_DOT = .46062E-3
MEAN_MOTION_DDOT = 0

CCSDS_OMM_VERS = 2.0
CREATION_DATE  = 
ORIGINATOR     = 

OBJECT_NAME    = ASTEX 1
OBJECT_ID      = 1971-089A
CENTER_NAME    = EARTH
REF_FRAME      = TEME
TIME_SYSTEM    = UTC
MEAN_ELEMENT_THEORY = SGP/SGP4

EPOCH          = 2026-03-26T15:38:28.872384
MEAN_MOTION    = 14.50786517
ECCENTRICITY   = .0016674
INCLINATION    = 92.7096
RA_OF_ASC_NODE = 157.2423
ARG_OF_PERICENTER = 34.9213
MEAN_ANOMALY   = 325.3083

EPHEMERIS_TYPE = 0
CLASSIFICATION_TYPE = U
NORAD_CAT_ID   = 5560
ELEMENT_SET_NO = 999
REV_AT_EPOCH   = 86476
BSTAR          = .10036E-3
MEAN_MOTION_DOT = .395E-5
MEAN_MOTION_DDOT = 0

CCSDS_OMM_VERS = 2.0
CREATION_DATE  = 
ORIGINATOR     = 

OBJECT_NAME    = SL-8 R/B
OBJECT_ID      = 1971-119B
CENTER_NAME    = EARTH
REF_FRAME      = TEME
TIME_SYSTEM    = UTC
MEAN_ELEMENT_THEORY = SGP/SGP4

EPOCH          = 2026-03-26T16:50:26.970720
MEAN_MOTION    = 14.38190549
ECCENTRICITY   = .0546666
INCLINATION    = 73.8857
RA_OF_ASC_NODE = 143.9138
ARG_OF_PERICENTER = 106.9465
MEAN_ANOMALY   = 259.2339

EPHEMERIS_TYPE = 0
CLASSIFICATION_TYPE = U
NORAD_CAT_ID   = 5730
ELEMENT_SET_NO = 999
REV_AT_EPOCH   = 65793
BSTAR          = .3687E-3
MEAN_MOTION_DOT = .7035E-4
MEAN_MOTION_DDOT = 0

CCSDS_OMM_VERS = 2.0
CREATION_DATE  = 
ORIGINATOR     = 

OBJECT_NAME    = OAO 3 (COPERNICUS)
OBJECT_ID      = 1972-065A
CENTER_NAME    = EARTH
REF_FRAME      = TEME
TIME_SYSTEM    = UTC
MEAN_ELEMENT_THEORY = SGP/SGP4

EPOCH          = 2026-03-26T17:04:56.439840
MEAN_MOTION    = 14.60010998
ECCENTRICITY   = .0007249
INCLINATION    = 35.0049
RA_OF_ASC_NODE = 200.3314
ARG_OF_PERICENTER = 297.9031
MEAN_ANOMALY   = 206.8290

EPHEMERIS_TYPE = 0
CLASSIFICATION_TYPE = U
NORAD_CAT_ID   = 6153
ELEMENT_SET_NO = 999
REV_AT_EPOCH   = 84868
BSTAR          = .68887E-4
MEAN_MOTION_DOT = .315E-5
MEAN_MOTION_DDOT = 0

